CCSDS_OMM_VERS,COMMENT,CREATION_DATE,ORIGINATOR,OBJECT_NAME,OBJECT_ID,CENTER_NAME,REF_FRAME,TIME_SYSTEM,MEAN_ELEMENT_THEORY,EPOCH,MEAN_MOTION,ECCENTRICITY,INCLINATION,RA_OF_ASC_NODE,ARG_OF_PERICENTER,MEAN_ANOMALY,EPHEMERIS_TYPE,CLASSIFICATION_TYPE,NORAD_CAT_ID,ELEMENT_SET_NO,REV_AT_EPOCH,BSTAR,MEAN_MOTION_DOT,MEAN_MOTION_DDOT,SEMIMAJOR_AXIS,PERIOD,APOAPSIS,PERIAPSIS,OBJECT_TYPE,RCS_SIZE,COUNTRY_CODE,LAUNCH_DATE,SITE,DECAY_DATE,FILE,GP_ID,TLE_LINE0,TLE_LINE1,TLE_LINE2
2,GENERATED VIA SPACE-TRACK.ORG API,2023-04-07T03:16:50,18 SPCS,KSF3-C,2023-001K,EARTH,TEME,UTC,SGP4,2023-04-06T21:18:40.886208,15.14998342,0.000935,97.4854,157.4649,257.3222,102.6965,0,U,55018,999,1426,0.00070174,0.00013062,0,6899.121,95.05,527.436,514.535,PAYLOAD,MEDIUM,LUXE,2023-01-03,AFETR,,3882049,229645607,0 KSF3-C,1 55018U 23001K   23096.88797322  .00013062  00000-0  70174-3 0  9995,2 55018  97.4854 157.4649 0009350 257.3222 102.6965 15.14998342 14262
2,GENERATED VIA SPACE-TRACK.ORG API,2023-04-07T00:06:13,18 SPCS,KSF3-C,2023-001K,EARTH,TEME,UTC,SGP4,2023-04-06T21:18:40.886208,15.14998342,0.000935,97.4854,157.4649,257.3222,102.6965,0,U,55018,999,1426,0.00070174,0.00013062,0,6899.121,95.05,527.436,514.535,PAYLOAD,MEDIUM,LUXE,2023-01-03,AFETR,,3881962,229619129,0 KSF3-C,1 55018U 23001K   23096.88797322  .00013062  00000-0  70174-3 0  9995,2 55018  97.4854 157.4649 0009350 257.3222 102.6965 15.14998342 14262
2,GENERATED VIA SPACE-TRACK.ORG API,2023-04-07T17:59:36,18 SPCS,KSF3-C,2023-001K,EARTH,TEME,UTC,SGP4,2023-04-07T03:39:07.214112,15.15007283,0.0009356,97.4853,157.725,256.2516,103.7675,0,U,55018,999,1430,0.00075249,0.00014017,0,6899.093,95.049,527.413,514.504,PAYLOAD,MEDIUM,LUXE,2023-01-03,AFETR,,3882626,229687085,0 KSF3-C,1 55018U 23001K   23097.15216683  .00014017  00000-0  75249-3 0  9991,2 55018  97.4853 157.7250 0009356 256.2516 103.7675 15.15007283 14303
2,GENERATED VIA SPACE-TRACK.ORG API,2023-04-08T19:06:10,18 SPCS,KSF3-C,2023-001K,EARTH,TEME,UTC,SGP4,2023-04-08T03:25:45.009120,15.15032047,0.0009421,97.4842,158.7004,252.4664,107.5539,0,U,55018,999,1445,0.0006441,0.00011994,0,6899.018,95.047,527.383,514.384,PAYLOAD,MEDIUM,LUXE,2023-01-03,AFETR,,3883527,229733861,0 KSF3-C,1 55018U 23001K   23098.14288205  .00011994  00000-0  64410-3 0  9999,2 55018  97.4842 158.7004 0009421 252.4664 107.5539 15.15032047 14457
2,GENERATED VIA SPACE-TRACK.ORG API,2023-04-08T07:56:15,18 SPCS,KSF3-C,2023-001K,EARTH,TEME,UTC,SGP4,2023-04-08T03:25:45.009120,15.15032047,0.0009421,97.4842,158.7004,252.4664,107.5539,0,U,55018,999,1445,0.0006441,0.00011994,0,6899.018,95.047,527.383,514.384,PAYLOAD,MEDIUM,LUXE,2023-01-03,AFETR,,3883122,229699074,0 KSF3-C,1 55018U 23001K   23098.14288205  .00011994  00000-0  64410-3 0  9999,2 55018  97.4842 158.7004 0009421 252.4664 107.5539 15.15032047 14457
2,GENERATED VIA SPACE-TRACK.ORG API,2023-04-09T17:53:16,18 SPCS,KSF3-C,2023-001K,EARTH,TEME,UTC,SGP4,2023-04-09T09:32:46.874400,15.15063358,0.0009583,97.4836,159.936,247.8544,112.1671,0,U,55018,999,1464,0.00067137,0.00012517,0,6898.923,95.046,527.399,514.177,PAYLOAD,MEDIUM,LUXE,2023-01-03,AFETR,,3884332,229778799,0 KSF3-C,1 55018U 23001K   23099.39776475  .00012517  00000-0  67137-3 0  9999,2 55018  97.4836 159.9360 0009583 247.8544 112.1671 15.15063358 14641
2,GENERATED VIA SPACE-TRACK.ORG API,2023-04-09T15:16:13,18 SPCS,KSF3-C,2023-001K,EARTH,TEME,UTC,SGP4,2023-04-09T09:32:46.874400,15.15063358,0.0009583,97.4836,159.936,247.8544,112.1671,0,U,55018,999,1464,0.00067137,0.00012517,0,6898.923,95.046,527.399,514.177,PAYLOAD,MEDIUM,LUXE,2023-01-03,AFETR,,3884262,229750880,0 KSF3-C,1 55018U 23001K   23099.39776475  .00012517  00000-0  67137-3 0  9999,2 55018  97.4836 159.9360 0009583 247.8544 112.1671 15.15063358 14641
2,GENERATED VIA SPACE-TRACK.ORG API,2023-04-10T04:07:24,18 SPCS,KSF3-C,2023-001K,EARTH,TEME,UTC,SGP4,2023-04-09T17:28:18.602976,15.15070991,0.0009622,97.4835,160.2612,246.6257,113.3964,0,U,55018,999,1469,0.00065131,0.00012143,0,6898.9,95.045,527.403,514.127,PAYLOAD,MEDIUM,LUXE,2023-01-03,AFETR,,3884641,229812526,0 KSF3-C,1 55018U 23001K   23099.72799309  .00012143  00000-0  65131-3 0  9994,2 55018  97.4835 160.2612 0009622 246.6257 113.3964 15.15070991 14691
2,GENERATED VIA SPACE-TRACK.ORG API,2023-04-10T19:14:30,18 SPCS,KSF3-C,2023-001K,EARTH,TEME,UTC,SGP4,2023-04-10T14:04:40.295136,15.15096764,0.0009718,97.4836,161.1068,243.3413,116.6825,0,U,55018,999,1482,0.00083191,0.00015547,0,6898.822,95.043,527.391,513.983,PAYLOAD,MEDIUM,LUXE,2023-01-03,AFETR,,3885195,229852687,0 KSF3-C,1 55018U 23001K   23100.58657749  .00015547  00000-0  83191-3 0  9999,2 55018  97.4836 161.1068 0009718 243.3413 116.6825 15.15096764 14824
2,GENERATED VIA SPACE-TRACK.ORG API,2023-04-10T16:26:19,18 SPCS,KSF3-C,2023-001K,EARTH,TEME,UTC,SGP4,2023-04-10T14:04:40.295136,15.15096764,0.0009718,97.4836,161.1068,243.3413,116.6825,0,U,55018,999,1482,0.00083191,0.00015547,0,6898.822,95.043,527.391,513.983,PAYLOAD,MEDIUM,LUXE,2023-01-03,AFETR,,3885130,229824728,0 KSF3-C,1 55018U 23001K   23100.58657749  .00015547  00000-0  83191-3 0  9999,2 55018  97.4836 161.1068 0009718 243.3413 116.6825 15.15096764 14824
2,GENERATED VIA SPACE-TRACK.ORG API,2023-04-11T04:38:01,18 SPCS,KSF3-C,2023-001K,EARTH,TEME,UTC,SGP4,2023-04-10T15:39:46.518336,15.15099111,0.0009722,97.4835,161.1719,243.0812,116.9428,0,U,55018,999,1483,0.00084143,0.00015728,0,6898.815,95.043,527.387,513.973,PAYLOAD,MEDIUM,LUXE,2023-01-03,AFETR,,3885363,229882401,0 KSF3-C,1 55018U 23001K   23100.65262174  .00015728  00000-0  84143-3 0  9990,2 55018  97.4835 161.1719 0009722 243.0812 116.9428 15.15099111 14833
2,GENERATED VIA SPACE-TRACK.ORG API,2023-04-11T17:23:33,18 SPCS,KSF3-C,2023-001K,EARTH,TEME,UTC,SGP4,2023-04-11T02:45:29.924352,15.1511211,0.000972,97.4836,161.6272,241.3698,118.6556,0,U,55018,999,1490,0.00079378,0.00014837,0,6898.775,95.042,527.346,513.935,PAYLOAD,MEDIUM,LUXE,2023-01-03,AFETR,,3885783,229919443,0 KSF3-C,1 55018U 23001K   23101.11492968  .00014837  00000-0  79378-3 0  9992,2 55018  97.4836 161.6272 0009720 241.3698 118.6556 15.15112110 14908
2,GENERATED VIA SPACE-TRACK.ORG API,2023-04-12T17:13:11,18 SPCS,KSF3-C,2023-001K,EARTH,TEME,UTC,SGP4,2023-04-12T04:07:07.732128,15.15142788,0.0009721,97.4837,162.668,237.1503,122.8794,0,U,55018,999,1506,0.00069957,0.00013076,0,6898.682,95.041,527.253,513.841,PAYLOAD,MEDIUM,LUXE,2023-01-03,AFETR,,3886349,229983959,0 KSF3-C,1 55018U 23001K   23102.17161727  .00013076  00000-0  69957-3 0  9991,2 55018  97.4837 162.6680 0009721 237.1503 122.8794 15.15142788 15065
2,GENERATED VIA SPACE-TRACK.ORG API,2023-04-13T17:59:17,18 SPCS,KSF3-C,2023-001K,EARTH,TEME,UTC,SGP4,2023-04-13T03:53:37.768416,15.15172128,0.0009735,97.484,163.6436,233.012,127.0222,0,U,55018,999,1521,0.00073022,0.00013665,0,6898.593,95.039,527.174,513.742,PAYLOAD,MEDIUM,LUXE,2023-01-03,AFETR,,3886564,230015802,0 KSF3-C,1 55018U 23001K   23103.16224269  .00013665  00000-0  73022-3 0  9994,2 55018  97.4840 163.6436 0009735 233.0120 127.0222 15.15172128 15215
2,GENERATED VIA SPACE-TRACK.ORG API,2023-04-13T22:46:13,18 SPCS,KSF3-C,2023-001K,EARTH,TEME,UTC,SGP4,2023-04-13T18:09:31.015008,15.15189392,0.0009773,97.4838,164.229,230.6339,129.4028,0,U,55018,999,1530,0.00074787,0.00014004,0,6898.541,95.038,527.148,513.664,PAYLOAD,MEDIUM,LUXE,2023-01-03,AFETR,,3886873,230025061,0 KSF3-C,1 55018U 23001K   23103.75660897  .00014004  00000-0  74787-3 0  9997,2 55018  97.4838 164.2290 0009773 230.6339 129.4028 15.15189392 15305
2,GENERATED VIA SPACE-TRACK.ORG API,2023-04-14T18:03:58,18 SPCS,KSF3-C,2023-001K,EARTH,TEME,UTC,SGP4,2023-04-14T03:40:06.151008,15.15202863,0.000983,97.4839,164.6193,229.1554,130.8827,0,U,55018,999,1536,0.0008048,0.00015083,0,6898.5,95.037,527.146,513.584,PAYLOAD,MEDIUM,LUXE,2023-01-03,AFETR,,3887333,230060520,0 KSF3-C,1 55018U 23001K   23104.15284897  .00015083  00000-0  80480-3 0  9999,2 55018  97.4839 164.6193 0009830 229.1554 130.8827 15.15202863 15366
2,GENERATED VIA SPACE-TRACK.ORG API,2023-04-15T01:56:12,18 SPCS,KSF3-C,2023-001K,EARTH,TEME,UTC,SGP4,2023-04-14T21:06:09.855936,15.15226901,0.0009917,97.4839,165.3347,226.5304,133.5104,0,U,55018,999,1547,0.00089445,0.00016787,0,6898.427,95.035,527.133,513.451,PAYLOAD,MEDIUM,LUXE,2023-01-03,AFETR,,3887543,230066607,0 KSF3-C,1 55018U 23001K   23104.87928074  .00016787  00000-0  89445-3 0  9992,2 55018  97.4839 165.3347 0009917 226.5304 133.5104 15.15226901 15474
2,GENERATED VIA SPACE-TRACK.ORG API,2023-04-15T19:46:36,18 SPCS,KSF3-C,2023-001K,EARTH,TEME,UTC,SGP4,2023-04-15T11:22:01.238016,15.15246534,0.0009949,97.4838,165.9199,224.531,135.5123,0,U,55018,999,1556,0.00090829,0.00017058,0,6898.367,95.034,527.095,513.369,PAYLOAD,MEDIUM,LUXE,2023-01-03,AFETR,,3887974,230101673,0 KSF3-C,1 55018U 23001K   23105.47362544  .00017058  00000-0  90829-3 0  9993,2 55018  97.4838 165.9199 0009949 224.5310 135.5123 15.15246534 15561
2,GENERATED VIA SPACE-TRACK.ORG API,2023-04-16T04:30:29,18 SPCS,KSF3-C,2023-001K,EARTH,TEME,UTC,SGP4,2023-04-15T17:42:23.843808,15.15255994,0.0009975,97.4837,166.1799,223.6365,136.4079,0,U,55018,999,1560,0.00091575,0.00017203,0,6898.338,95.033,527.085,513.322,PAYLOAD,MEDIUM,LUXE,2023-01-03,AFETR,,3888171,230132937,0 KSF3-C,1 55018U 23001K   23105.73777597  .00017203  00000-0  91575-3 0  9991,2 55018  97.4837 166.1799 0009975 223.6365 136.4079 15.15255994 15603
2,GENERATED VIA SPACE-TRACK.ORG API,2023-04-16T18:59:58,18 SPCS,KSF3-C,2023-001K,EARTH,TEME,UTC,SGP4,2023-04-16T03:12:57.453984,15.15271495,0.0010011,97.4836,166.57,222.4951,137.5507,0,U,55018,999,1566,0.00095905,0.0001803,0,6898.291,95.032,527.062,513.251,PAYLOAD,MEDIUM,LUXE,2023-01-03,AFETR,,3888626,230170989,0 KSF3-C,1 55018U 23001K   23106.13399831  .00018030  00000-0  95905-3 0  9997,2 55018  97.4836 166.5700 0010011 222.4951 137.5507 15.15271495 15667
